OBJECT_NAME,OBJECT_ID,EPOCH,MEAN_MOTION,ECCENTRICITY,INCLINATION,RA_OF_ASC_NODE,ARG_OF_PERICENTER,MEAN_ANOMALY,EPHEMERIS_TYPE,CLASSIFICATION_TYPE,NORAD_CAT_ID,ELEMENT_SET_NO,REV_AT_EPOCH,BSTAR,MEAN_MOTION_DOT,MEAN_MOTION_DDOT
CONNECTA IOT-1,2024-149E,2026-05-10T04:41:12.187680,15.23245304,.0003355,97.3760,207.1358,72.1437,288.0165,0,U,60472,999,9601,.11866E-3,.274E-4,0
LOPEN,2024-149F,2026-05-10T03:52:29.877024,15.38600596,.0002292,97.3771,213.2663,71.2194,288.9300,0,U,60473,999,9641,.27942E-3,.1057E-3,0
ROCK,2024-149G,2026-05-10T05:06:49.470912,15.38606089,.0002361,97.3769,213.3358,63.4742,296.6745,0,U,60474,999,9642,.24037E-3,.9082E-4,0
CONNECTA IOT-3,2024-149H,2026-05-10T03:37:48.059616,15.23255786,.0004154,97.3734,206.8572,59.5457,300.6190,0,U,60475,999,9601,.12658E-3,.2929E-4,0
QUBE,2024-149J,2026-05-10T04:28:23.779776,15.45479336,.0001991,97.3767,215.9422,48.9216,311.2205,0,U,60476,999,9659,.33835E-3,.16137E-3,0
WREN-1,2024-149L,2026-05-10T04:57:21.379680,15.40095808,.000482,97.3758,213.9665,55.8339,304.3364,0,U,60478,999,9647,.31956E-3,.12716E-3,0
TOMORROW-S1,2024-149M,2026-05-10T04:45:31.660704,15.32189958,.0003409,97.3746,210.8067,52.5578,307.5974,0,U,60479,999,9627,.15086E-3,.461E-4,0
FLOCK 4BE-18,2024-149N,2026-05-10T03:55:49.975104,15.40652332,.0004081,97.3721,213.5338,54.3485,305.8141,0,U,60480,999,9645,.29927E-3,.12122E-3,0
FLOCK 4BE-7,2024-149P,2026-05-10T04:39:14.746752,15.38778375,.0003344,97.3751,212.9878,64.1058,296.0532,0,U,60481,999,9640,.35357E-3,.13481E-3,0
FLOCK 4BE-26,2024-149S,2026-05-10T05:20:42.672768,15.59562683,.0001158,97.3668,214.6092,247.4389,112.6745,0,U,60484,999,9653,.13293E-2,.106714E-2,0
TOMORROW-S2,2024-149T,2026-05-10T03:56:09.607776,15.32199330,.0004098,97.3813,211.2257,67.5218,292.6458,0,U,60485,999,9626,.17513E-3,.5367E-4,0
FLOCK 4BE-36,2024-149U,2026-05-10T05:19:36.156000,15.41545777,.0004367,97.3736,214.2325,63.8908,296.2788,0,U,60486,999,9650,.2712E-3,.11307E-3,0
FLOCK 4BE-25,2024-149V,2026-05-10T05:30:20.611008,15.37853761,.0002954,97.3791,213.1528,67.5211,292.6347,0,U,60487,999,9640,.22918E-3,.8445E-4,0
FLOCK 4BE-31,2024-149W,2026-05-10T05:14:08.845152,15.42653144,.0003418,97.3794,214.9868,71.7096,288.4523,0,U,60488,999,9652,.28527E-3,.12346E-3,0
FLOCK 4BE-20,2024-149X,2026-05-10T04:10:02.165088,15.37073058,.0004457,97.3692,212.0727,63.1482,297.0217,0,U,60489,999,9637,.25426E-3,.9146E-4,0
FLOCK 4BE-23,2024-149Y,2026-05-10T05:16:42.597408,15.36708691,.0004401,97.3775,212.4740,69.8477,290.3240,0,U,60490,999,9636,.2448E-3,.8699E-4,0
FLOCK 4BE-15,2024-149Z,2026-05-10T04:50:42.391392,15.51795586,.0004082,97.3691,214.3960,148.6610,211.4886,0,U,60491,999,9652,.11627E-2,.69866E-3,0
FLOCK 4BE-17,2024-149AA,2026-05-10T04:32:22.488288,15.38682795,.0003623,97.3766,213.2927,61.8778,298.2833,0,U,60492,999,9641,.26664E-3,.10111E-3,0
NUSAT-50 (NANCY ROMAN),2024-149AB,2026-05-10T05:21:16.127712,15.29199962,.0002672,97.3783,211.7637,0.7998,359.3246,0,U,60493,999,9632,.20685E-3,.5786E-4,0
FLOCK 4BE-22,2024-149AC,2026-05-10T04:54:04.980384,15.40028753,.0004367,97.3726,213.4416,65.9669,294.2034,0,U,60494,999,9645,.25937E-3,.10279E-3,0
FLOCK 4BE-34,2024-149AD,2026-05-10T03:45:54.607392,15.40071255,.0004682,97.3774,214.1910,74.6716,285.5047,0,U,60495,999,9647,.27904E-3,.11081E-3,0
TYCHE,2024-149AE,2026-05-10T03:58:18.552000,15.25810236,.000389,97.3752,208.4924,71.4908,288.6753,0,U,60496,999,9610,.13088E-3,.3274E-4,0
FLOCK 4BE-32,2024-149AF,2026-05-10T05:05:53.729088,15.40869457,.0004564,97.3714,213.7696,71.4253,288.7489,0,U,60497,999,9648,.26062E-3,.1062E-3,0
NUSAT-48 (HENRIETTA LEAVITT),2024-149AG,2026-05-10T05:21:23.440608,15.29809700,.0005049,97.3902,211.9182,62.1665,298.0086,0,U,60498,999,9633,.14912E-3,.423E-4,0
FLOCK 4BE-30,2024-149AH,2026-05-10T05:09:46.214208,15.48354165,.0002434,97.3777,214.7226,161.7097,198.4241,0,U,60499,999,9588,.10704E-2,.56869E-3,0
NUSAT-49 (KLARA DAN VON NEUMANN),2024-149AJ,2026-05-10T04:53:31.333632,15.30212281,.0004089,97.3774,211.7485,79.3672,280.8029,0,U,60500,999,9632,.19169E-3,.5528E-4,0
FLOCK 4BE-11,2024-149AK,2026-05-10T03:54:32.200416,15.41723678,.0004564,97.3694,213.9121,69.7613,290.4125,0,U,60501,999,9649,.298E-3,.12509E-3,0
YAM-7,2024-149AN,2026-05-10T03:53:45.629088,15.31291657,.0004905,97.3780,210.5823,79.3576,280.8218,0,U,60504,999,9623,.17919E-3,.5339E-4,0
FLOCK 4BE-24,2024-149AP,2026-05-10T05:08:51.232704,15.41669476,.0004706,97.3712,214.2110,77.7037,282.4737,0,U,60505,999,9651,.28426E-3,.11906E-3,0
