CONNECTA IOT-1          
1 60472U 24149E   26130.19527995  .00002740  00000+0  11866-3 0  9995
2 60472  97.3760 207.1358 0003355  72.1437 288.0165 15.23245304 96014
LOPEN                   
1 60473U 24149F   26130.16145691  .00010570  00000+0  27942-3 0  9994
2 60473  97.3771 213.2663 0002292  71.2194 288.9300 15.38600596 96411
ROCK                    
1 60474U 24149G   26130.21307258  .00009082  00000+0  24037-3 0  9998
2 60474  97.3769 213.3358 0002361  63.4742 296.6745 15.38606089 96423
CONNECTA IOT-3          
1 60475U 24149H   26130.15125069  .00002929  00000+0  12658-3 0  9999
2 60475  97.3734 206.8572 0004154  59.5457 300.6190 15.23255786 96015
QUBE                    
1 60476U 24149J   26130.18638634  .00016137  00000+0  33835-3 0  9996
2 60476  97.3767 215.9422 0001991  48.9216 311.2205 15.45479336 96599
WREN-1                  
1 60478U 24149L   26130.20649745  .00012716  00000+0  31956-3 0  9997
2 60478  97.3758 213.9665 0004820  55.8339 304.3364 15.40095808 96474
TOMORROW-S1             
1 60479U 24149M   26130.19828311  .00004610  00000+0  15086-3 0  9994
2 60479  97.3746 210.8067 0003409  52.5578 307.5974 15.32189958 96276
FLOCK 4BE-18            
1 60480U 24149N   26130.16377286  .00012122  00000+0  29927-3 0  9999
2 60480  97.3721 213.5338 0004081  54.3485 305.8141 15.40652332 96453
FLOCK 4BE-7             
1 60481U 24149P   26130.19392068  .00013481  00000+0  35357-3 0  9991
2 60481  97.3751 212.9878 0003344  64.1058 296.0532 15.38778375 96408
FLOCK 4BE-26            
1 60484U 24149S   26130.22271612  .00106714  00000+0  13293-2 0  9995
2 60484  97.3668 214.6092 0001158 247.4389 112.6745 15.59562683 96538
TOMORROW-S2             
1 60485U 24149T   26130.16400009  .00005367  00000+0  17513-3 0  9995
2 60485  97.3813 211.2257 0004098  67.5218 292.6458 15.32199330 96261
FLOCK 4BE-36            
1 60486U 24149U   26130.22194625  .00011307  00000+0  27120-3 0  9993
2 60486  97.3736 214.2325 0004367  63.8908 296.2788 15.41545777 96502
FLOCK 4BE-25            
1 60487U 24149V   26130.22940522  .00008445  00000+0  22918-3 0  9998
2 60487  97.3791 213.1528 0002954  67.5211 292.6347 15.37853761 96405
FLOCK 4BE-31            
1 60488U 24149W   26130.21815793  .00012346  00000+0  28527-3 0  9996
2 60488  97.3794 214.9868 0003418  71.7096 288.4523 15.42653144 96520
FLOCK 4BE-20            
1 60489U 24149X   26130.17363617  .00009146  00000+0  25426-3 0  9994
2 60489  97.3692 212.0727 0004457  63.1482 297.0217 15.37073058 96372
FLOCK 4BE-23            
1 60490U 24149Y   26130.21993747  .00008699  00000+0  24480-3 0  9995
2 60490  97.3775 212.4740 0004401  69.8477 290.3240 15.36708691 96369
FLOCK 4BE-15            
1 60491U 24149Z   26130.20187953  .00069866  00000+0  11627-2 0  9990
2 60491  97.3691 214.3960 0004082 148.6610 211.4886 15.51795586 96526
FLOCK 4BE-17            
1 60492U 24149AA  26130.18914917  .00010111  00000+0  26664-3 0  9993
2 60492  97.3766 213.2927 0003623  61.8778 298.2833 15.38682795 96417
NUSAT-50 (NANCY ROMAN)  
1 60493U 24149AB  26130.22310333  .00005786  00000+0  20685-3 0  9990
2 60493  97.3783 211.7637 0002672   0.7998 359.3246 15.29199962 96323
FLOCK 4BE-22            
1 60494U 24149AC  26130.20422431  .00010279  00000+0  25937-3 0  9990
2 60494  97.3726 213.4416 0004367  65.9669 294.2034 15.40028753 96454
FLOCK 4BE-34            
1 60495U 24149AD  26130.15688203  .00011081  00000+0  27904-3 0  9994
2 60495  97.3774 214.1910 0004682  74.6716 285.5047 15.40071255 96479
TYCHE                   
1 60496U 24149AE  26130.16549250  .00003274  00000+0  13088-3 0  9997
2 60496  97.3752 208.4924 0003890  71.4908 288.6753 15.25810236 96106
FLOCK 4BE-32            
1 60497U 24149AF  26130.21242742  .00010620  00000+0  26062-3 0  9999
2 60497  97.3714 213.7696 0004564  71.4253 288.7489 15.40869457 96486
NUSAT-48 (HENRIETTA LE*)
1 60498U 24149AG  26130.22318797  .00004230  00000+0  14912-3 0  9996
2 60498  97.3902 211.9182 0005049  62.1665 298.0086 15.29809700 96332
FLOCK 4BE-30            
1 60499U 24149AH  26130.21511822  .00056869  00000+0  10704-2 0  9999
2 60499  97.3777 214.7226 0002434 161.7097 198.4241 15.48354165 95889
NUSAT-49 (KLARA DAN VO*)
1 60500U 24149AJ  26130.20383488  .00005528  00000+0  19169-3 0  9997
2 60500  97.3774 211.7485 0004089  79.3672 280.8029 15.30212281 96327
FLOCK 4BE-11            
1 60501U 24149AK  26130.16287269  .00012509  00000+0  29800-3 0  9993
2 60501  97.3694 213.9121 0004564  69.7613 290.4125 15.41723678 96497
YAM-7                   
1 60504U 24149AN  26130.16233367  .00005339  00000+0  17919-3 0  9997
2 60504  97.3780 210.5823 0004905  79.3576 280.8218 15.31291657 96236
FLOCK 4BE-24            
1 60505U 24149AP  26130.21448186  .00011906  00000+0  28426-3 0  9993
2 60505  97.3712 214.2110 0004706  77.7037 282.4737 15.41669476 96519
